[{"OBJECT_NAME":"ONEWEB-0218","OBJECT_ID":"2021-031E","EPOCH":"2026-03-09T16:35:42.221760","MEAN_MOTION":13.14502317,"ECCENTRICITY":0.00024492,"INCLINATION":87.8988,"RA_OF_ASC_NODE":309.5462,"ARG_OF_PERICENTER":94.5208,"MEAN_ANOMALY":265.6202,"EPHEMERIS_TYPE":0,"CLASSIFICATION_TYPE":"U","NORAD_CAT_ID":48214,"ELEMENT_SET_NO":999,"REV_AT_EPOCH":23530,"BSTAR":-0.00042611497,"MEAN_MOTION_DOT":-1.45e-6,"MEAN_MOTION_DDOT":0},{"OBJECT_NAME":"FENGYUN 1C DEB","OBJECT_ID":"1999-025DZK","EPOCH":"2026-03-08T15:41:58.738848","MEAN_MOTION":13.74834328,"ECCENTRICITY":0.03095702,"INCLINATION":98.4791,"RA_OF_ASC_NODE":317.0759,"ARG_OF_PERICENTER":64.2688,"MEAN_ANOMALY":299.0076,"EPHEMERIS_TYPE":0,"CLASSIFICATION_TYPE":"U","NORAD_CAT_ID":36689,"ELEMENT_SET_NO":999,"REV_AT_EPOCH":59393,"BSTAR":0.0030403019,"MEAN_MOTION_DOT":4.067e-5,"MEAN_MOTION_DDOT":0}]
